{"type": "FeatureCollection", "features": [ {"type": "Feature", "properties": {"norad_id": 66640, "name": "STARLINK-35921", "group": "last-30-days", "lat": -43.50366289984941, "lon": 108.99535253313543, "alt_km": 452.33066409999446, "timestamp": "2025-12-19T14:48:34.964453+00:00", "meta": {"OBJECT_NAME": "STARLINK-35921", "OBJECT_ID": "2025-271Z", "EPOCH": "2025-12-19T08:00:01.999872", "MEAN_MOTION": 15.39566622, "ECCENTRICITY": 8.205e-05, "INCLINATION": 53.1586, "RA_OF_ASC_NODE": 155.6963, "ARG_OF_PERICENTER": 104.7086, "MEAN_ANOMALY": 62.6052, "EPHEMERIS_TYPE": 0, "CLASSIFICATION_TYPE": "U", "NORAD_CAT_ID": 66640, "ELEMENT_SET_NO": 999, "REV_AT_EPOCH": 530, "BSTAR": 0.0019451126, "MEAN_MOTION_DOT": 0.00078066, "MEAN_MOTION_DDOT": 0}, "tle": {"line1": "1 66640U 25271Z   25353.33335648  .00078066  00000+0  19451-2 0  9990", "line2": "2 66640  53.1586 155.6963 0000820 104.7086  62.6052 15.39566622  5307"}}, "geometry": {"type": "Point", "coordinates": [108.99535253313543, -43.50366289984941]}}, {"type": "Feature", "properties": {"norad_id": 66641, "name": "STARLINK-35923", "group": "last-30-days", "lat": 0.22735620967610412, "lon": 154.41089160144764, "alt_km": 419.5889414341282, "timestamp": "2025-12-19T14:48:34.964463+00:00", "meta": {"OBJECT_NAME": "STARLINK-35923", "OBJECT_ID": "2025-271AA", "EPOCH": "2025-12-19T07:04:03.503136", "MEAN_MOTION": 15.49318318, "ECCENTRICITY": 9.606e-05, "INCLINATION": 53.1588, "RA_OF_ASC_NODE": 155.7834, "ARG_OF_PERICENTER": 97.7063, "MEAN_ANOMALY": 262.4056, "EPHEMERIS_TYPE": 0, "CLASSIFICATION_TYPE": "U", "NORAD_CAT_ID": 66641, "ELEMENT_SET_NO": 999, "REV_AT_EPOCH": 522, "BSTAR": 0.00096812964, "MEAN_MOTION_DOT": 0.00053784, "MEAN_MOTION_DDOT": 0}, "tle": {"line1": "1 66641U 25271AA  25353.29448499  .00053784  00000+0  96813-3 0  9993", "line2": "2 66641  53.1588 155.7834 0000960  97.7063 262.4056 15.49318318  5222"}}, "geometry": {"type": "Point", "coordinates": [154.41089160144764, 0.22735620967610412]}}, {"type": "Feature", "properties": {"norad_id": 66642, "name": "STARLINK-35926", "group": "last-30-days", "lat": -1.2500708638039588, "lon": 153.30638053312913, "alt_km": 419.2776290283864, "timestamp": "2025-12-19T14:48:34.964472+00:00", "meta": {"OBJECT_NAME": "STARLINK-35926", "OBJECT_ID": "2025-271AB", "EPOCH": "2025-12-19T07:04:32.017728", "MEAN_MOTION": 15.49313638, "ECCENTRICITY": 0.0001869, "INCLINATION": 53.1588, "RA_OF_ASC_NODE": 155.7852, "ARG_OF_PERICENTER": 68.471, "MEAN_ANOMALY": 291.6499, "EPHEMERIS_TYPE": 0, "CLASSIFICATION_TYPE": "U", "NORAD_CAT_ID": 66642, "ELEMENT_SET_NO": 999, "REV_AT_EPOCH": 518, "BSTAR": 0.0010278444, "MEAN_MOTION_DOT": 0.00057146, "MEAN_MOTION_DDOT": 0}, "tle": {"line1": "1 66642U 25271AB  25353.29481502  .00057146  00000+0  10278-2 0  9992", "line2": "2 66642  53.1588 155.7852 0001869  68.4710 291.6499 15.49313638  5186"}}, "geometry": {"type": "Point", "coordinates": [153.30638053312913, -1.2500708638039588]}}, {"type": "Feature", "properties": {"norad_id": 66643, "name": "STARLINK-35918", "group": "last-30-days", "lat": -4.206316952543282, "lon": 151.09042592189405, "alt_km": 419.97130274603296, "timestamp": "2025-12-19T14:48:34.964484+00:00", "meta": {"OBJECT_NAME": "STARLINK-35918", "OBJECT_ID": "2025-271AC", "EPOCH": "2025-12-18T20:15:17.256672", "MEAN_MOTION": 15.49355287, "ECCENTRICITY": 0.00012817, "INCLINATION": 53.1592, "RA_OF_ASC_NODE": 157.9495, "ARG_OF_PERICENTER": 86.0423, "MEAN_ANOMALY": 274.0733, "EPHEMERIS_TYPE": 0, "CLASSIFICATION_TYPE": "U", "NORAD_CAT_ID": 66643, "ELEMENT_SET_NO": 999, "REV_AT_EPOCH": 515, "BSTAR": 0.0005250722, "MEAN_MOTION_DOT": 0.0002891, "MEAN_MOTION_DDOT": 0}, "tle": {"line1": "1 66643U 25271AC  25352.84394973  .00028910  00000+0  52507-3 0  9997", "line2": "2 66643  53.1592 157.9495 0001281  86.0423 274.0733 15.49355287  5153"}}, "geometry": {"type": "Point", "coordinates": [151.09042592189405, -4.206316952543282]}}, {"type": "Feature", "properties": {"norad_id": 66644, "name": "STARLINK-35938", "group": "last-30-days", "lat": -2.5892240133967195, "lon": 152.30442754116768, "alt_km": 419.6448150016013, "timestamp": "2025-12-19T14:48:34.964494+00:00", "meta": {"OBJECT_NAME": "STARLINK-35938", "OBJECT_ID": "2025-271AD", "EPOCH": "2025-12-18T20:14:46.464576", "MEAN_MOTION": 15.49333178, "ECCENTRICITY": 5.997e-05, "INCLINATION": 53.1591, "RA_OF_ASC_NODE": 157.9473, "ARG_OF_PERICENTER": 93.6054, "MEAN_ANOMALY": 266.5024, "EPHEMERIS_TYPE": 0, "CLASSIFICATION_TYPE": "U", "NORAD_CAT_ID": 66644, "ELEMENT_SET_NO": 999, "REV_AT_EPOCH": 515, "BSTAR": 0.0013201346, "MEAN_MOTION_DOT": 0.00073731, "MEAN_MOTION_DDOT": 0}, "tle": {"line1": "1 66644U 25271AD  25352.84359334  .00073731  00000+0  13201-2 0  9998", "line2": "2 66644  53.1591 157.9473 0000599  93.6054 266.5024 15.49333178  5158"}}, "geometry": {"type": "Point", "coordinates": [152.30442754116768, -2.5892240133967195]}}, {"type": "Feature", "properties": {"norad_id": 66645, "name": "SHENZHOU-22", "group": "last-30-days", "lat": -40.98493149063559, "lon": -104.73603943968843, "alt_km": 397.471209209928, "timestamp": "2025-12-19T14:48:34.964506+00:00", "meta": {"OBJECT_NAME": "SHENZHOU-22", "OBJECT_ID": "2025-272A", "EPOCH": "2025-12-19T05:56:22.256448", "MEAN_MOTION": 15.59458428, "ECCENTRICITY": 0.00077261, "INCLINATION": 41.4684, "RA_OF_ASC_NODE": 337.1916, "ARG_OF_PERICENTER": 88.0762, "MEAN_ANOMALY": 272.0962, "EPHEMERIS_TYPE": 0, "CLASSIFICATION_TYPE": "U", "NORAD_CAT_ID": 66645, "ELEMENT_SET_NO": 999, "REV_AT_EPOCH": 26357, "BSTAR": 0.00024976186, "MEAN_MOTION_DOT": 0.00020088, "MEAN_MOTION_DDOT": 0}, "tle": {"line1": "1 66645U 25272A   25353.24747982  .00020088  00000+0  24976-3 0  9994", "line2": "2 66645  41.4684 337.1916 0007726  88.0762 272.0962 15.59458428263571"}}, "geometry": {"type": "Point", "coordinates": [-104.73603943968843, -40.98493149063559]}}, {"type": "Feature", "properties": {"norad_id": 66647, "name": "COSMOS 2597 (RODNIK-S 22)", "group": "last-30-days", "lat": -61.77539302852936, "lon": 116.38612769583142, "alt_km": 1500.1393202066783, "timestamp": "2025-12-19T14:48:34.964518+00:00", "meta": {"OBJECT_NAME": "COSMOS 2597 (RODNIK-S 22)", "OBJECT_ID": "2025-273A", "EPOCH": "2025-12-19T05:46:22.331136", "MEAN_MOTION": 12.41952011, "ECCENTRICITY": 0.00076436, "INCLINATION": 82.4992, "RA_OF_ASC_NODE": 282.4123, "ARG_OF_PERICENTER": 271.3161, "MEAN_ANOMALY": 88.7042, "EPHEMERIS_TYPE": 0, "CLASSIFICATION_TYPE": "U", "NORAD_CAT_ID": 66647, "ELEMENT_SET_NO": 999, "REV_AT_EPOCH": 294, "BSTAR": -2.6541538e-05, "MEAN_MOTION_DOT": 6e-08, "MEAN_MOTION_DDOT": 0}, "tle": {"line1": "1 66647U 25273A   25353.24053624  .00000006  00000+0 -26542-4 0  9991", "line2": "2 66647  82.4992 282.4123 0007643 271.3161  88.7042 12.41952011  2948"}}, "geometry": {"type": "Point", "coordinates": [116.38612769583142, -61.77539302852936]}}, {"type": "Feature", "properties": {"norad_id": 66648, "name": "COSMOS 2598 (RODNIK-S 23)", "group": "last-30-days", "lat": -49.3038285809588, "lon": -86.6355121621208, "alt_km": 1499.6520397717113, "timestamp": "2025-12-19T14:48:34.964529+00:00", "meta": {"OBJECT_NAME": "COSMOS 2598 (RODNIK-S 23)", "OBJECT_ID": "2025-273B", "EPOCH": "2025-12-19T05:25:14.584800", "MEAN_MOTION": 12.43233457, "ECCENTRICITY": 0.00080717, "INCLINATION": 82.5031, "RA_OF_ASC_NODE": 282.4143, "ARG_OF_PERICENTER": 221.3807, "MEAN_ANOMALY": 138.6662, "EPHEMERIS_TYPE": 0, "CLASSIFICATION_TYPE": "U", "NORAD_CAT_ID": 66648, "ELEMENT_SET_NO": 999, "REV_AT_EPOCH": 294, "BSTAR": 6.182063e-06, "MEAN_MOTION_DOT": 1.1e-07, "MEAN_MOTION_DDOT": 0}, "tle": {"line1": "1 66648U 25273B   25353.22586325  .00000011  00000+0  61821-5 0  9994", "line2": "2 66648  82.5031 282.4143 0008071 221.3807 138.6662 12.43233457  2945"}}, "geometry": {"type": "Point", "coordinates": [-86.6355121621208, -49.3038285809588]}}, {"type": "Feature", "properties": {"norad_id": 66649, "name": "COSMOS 2599 (RODNIK-S 24)", "group": "last-30-days", "lat": -24.065792660090764, "lon": 105.57620788258687, "alt_km": 1504.3612785558298, "timestamp": "2025-12-19T14:48:34.964539+00:00", "meta": {"OBJECT_NAME": "COSMOS 2599 (RODNIK-S 24)", "OBJECT_ID": "2025-273C", "EPOCH": "2025-12-19T05:58:25.601952", "MEAN_MOTION": 12.41150952, "ECCENTRICITY": 0.00062764, "INCLINATION": 82.5049, "RA_OF_ASC_NODE": 282.4339, "ARG_OF_PERICENTER": 262.6033, "MEAN_ANOMALY": 97.4333, "EPHEMERIS_TYPE": 0, "CLASSIFICATION_TYPE": "U", "NORAD_CAT_ID": 66649, "ELEMENT_SET_NO": 999, "REV_AT_EPOCH": 294, "BSTAR": -7.0298927e-05, "MEAN_MOTION_DOT": 0, "MEAN_MOTION_DDOT": 0}, "tle": {"line1": "1 66649U 25273C   25353.24890743  .00000000  00000+0 -70299-4 0  9996", "line2": "2 66649  82.5049 282.4339 0006276 262.6033  97.4333 12.41150952  2949"}}, "geometry": {"type": "Point", "coordinates": [105.57620788258687, -24.065792660090764]}}, {"type": "Feature", "properties": {"norad_id": 66650, "name": "BEE-1000", "group": "last-30-days", "lat": 58.6558776780689, "lon": 113.58184046133069, "alt_km": 589.0424501229645, "timestamp": "2025-12-19T14:48:34.964552+00:00", "meta": {"OBJECT_NAME": "BEE-1000", "OBJECT_ID": "2025-274A", "EPOCH": "2025-12-18T20:33:42.350688", "MEAN_MOTION": 14.916814, "ECCENTRICITY": 0.00106541, "INCLINATION": 97.74, "RA_OF_ASC_NODE": 279.9321, "ARG_OF_PERICENTER": 228.6345, "MEAN_ANOMALY": 131.3958, "EPHEMERIS_TYPE": 0, "CLASSIFICATION_TYPE": "U", "NORAD_CAT_ID": 66650, "ELEMENT_SET_NO": 999, "REV_AT_EPOCH": 331, "BSTAR": 0.00011026298, "MEAN_MOTION_DOT": 1.054e-05, "MEAN_MOTION_DDOT": 0}, "tle": {"line1": "1 66650U 25274A   25352.85674017  .00001054  00000+0  11026-3 0  9990", "line2": "2 66650  97.7400 279.9321 0010654 228.6345 131.3958 14.91681400  3312"}}, "geometry": {"type": "Point", "coordinates": [113.58184046133069, 58.6558776780689]}}]}